satname,norad_id,inclination_deg,eccentricity,mean_motion_rev_per_day,perigee_km,apogee_km,l1,l2
STARLINK-1452,45669,53.0345,0.0004678,15.3907988,445.63525361475604,452.02256291853064,1 45669U 20035N   26034.00002315  .00075604  00000+0  19143-2 0  9997,2 45669  53.0345 186.2892 0004678 252.7726  63.1715 15.39079880  5833
STARLINK-1453,45670,53.0519,0.0004646,15.45232271,427.5322916097757,433.85905893163635,1 45670U 20035P   26034.37874039  .00108809  00000+0  22301-2 0  9993,2 45670  53.0519 177.6939 0004646 233.4468 126.6110 15.45232271314051
STARLINK-1454,45671,53.0548,3.11e-05,15.4373194,434.8946738573741,435.3184576071617,1 45671U 20035Q   26034.19880820  .00122808  00000+0  26431-2 0  9992,2 45671  53.0548 217.7256 0000311 237.3380 122.7595 15.43731940313578
STARLINK-1456,45673,53.0508,0.0005347,15.42539375,434.9728222646072,442.26265978465835,1 45673U 20035S   26034.18243130  .00053049  00000+0  12042-2 0  9993,2 45673  53.0508 211.1348 0005347 160.9677 199.1529 15.42539375313684
STARLINK-1457,45674,53.0494,0.0003872,15.68042664,361.8915052518214,367.113005091026,1 45674U 20035T   26034.66668981  .00158105  00000+0  13758-2 0  9996,2 45674  53.0494 191.6017 0003872 309.2382 262.3903 15.68042664  5883
STARLINK-1458,45675,53.0541,5.04e-05,15.37800096,452.27179303008234,452.960332938831,1 45675U 20035U   26034.66668981  .00058615  00000+0  15535-2 0  9997,2 45675  53.0541 216.4672 0000504  71.6518 178.0119 15.37800096  5496
STARLINK-1460,45676,53.0561,0.0001345,15.06397991,546.2862550315713,548.1491754499702,1 45676U 20035V   26033.93548818  .00000547  00000+0  55596-4 0  9997,2 45676  53.0561 222.6342 0001345  92.1187 267.9956 15.06397991313452
STARLINK-1392,45677,53.055,0.0001294,15.06406685,546.2949319996751,548.0872069040497,1 45677U 20035W   26033.54845431  .00000432  00000+0  47880-4 0  9996,2 45677  53.0550 224.3726 0001294  92.6267 267.4870 15.06406685313432
STARLINK-1394,45679,53.0525,0.0005888,15.41871143,436.57227760981186,444.6020071598841,1 45679U 20035Y   26033.89367533  .00020271  00000+0  47839-3 0  9994,2 45679  53.0525 202.4412 0005888 163.8302 196.2891 15.41871143313772
STARLINK-1402,45685,53.0497,0.0006612,15.39511435,443.03988151714566,452.06617400986033,1 45685U 20035AE  26034.66668981  .00076923  00000+0  19193-2 0  9994,2 45685  53.0497 184.7464 0006612 160.7654  32.8063 15.39511435  5875
STARLINK-1404,45686,53.1568,0.0001602,15.29359169,476.62848002001283,478.82509877813663,1 45686U 20035AF  26033.87764020  .00001814  00000+0  75195-4 0  9991,2 45686  53.1568 211.3387 0001602  86.0729 274.0454 15.29359169313648
STARLINK-1413,45689,53.158,0.000116,15.29383934,476.8575071886198,478.4480504173016,1 45689U 20035AJ  26033.88926837  .00007388  00000+0  26788-3 0  9996,2 45689  53.1580 211.2184 0001160  94.1521 265.9612 15.29383934313561
STARLINK-1417,45693,53.0503,0.000716,15.10345589,530.1953189671631,540.0951391191529,1 45693U 20035AN  26033.88318438  .00026613  00000+0  16150-2 0  9996,2 45693  53.0503 211.8063 0007160 134.7626 225.3948 15.10345589313639
STARLINK-1420,45695,53.0549,0.0001202,15.46867106,425.07962472934196,426.71531461585073,1 45695U 20035AQ  26034.66668981  .00089254  00000+0  17359-2 0  9998,2 45695  53.0549 185.5304 0001202  40.6007 212.5821 15.46867106  5791
STARLINK-1422,45696,53.1563,0.0001494,15.29356465,476.7106032095571,478.75913772445256,1 45696U 20035AR  26034.66668981 -.00010202  00000+0 -34169-3 0  9997,2 45696  53.1563 207.5748 0001494  91.5361 213.1525 15.29356465  5809
STARLINK-1351,45697,53.0555,9.77e-05,15.43540299,435.00478534584363,436.33620333023646,1 45697U 20035AS  26034.00002315  .00076000  00000+0  16599-2 0  9991,2 45697  53.0555 187.8871 0000977  15.5076 271.9718 15.43540299  5768
STARLINK-1398,45699,53.0428,0.0004276,15.76998654,336.077560564112,341.8220131842472,1 45699U 20035AU  26034.66668981  .00262344  00000+0  15389-2 0  9996,2 45699  53.0428 111.3097 0004276 328.2513  54.7333 15.76998654  6025
STARLINK-1400,45700,53.054,0.0001618,15.44271306,432.41791102795924,434.62216324517794,1 45700U 20035AV  26034.58435648  .00104113  00000+0  22070-2 0  9996,2 45700  53.0540 185.9462 0001618 338.4641  21.6296 15.44271306314068
STARLINK-1403,45701,53.0567,0.0001246,15.06403568,546.3377254859779,548.063519621518,1 45701U 20035AW  26034.43952347  .00000965  00000+0  83624-4 0  9995,2 45701  53.0567 190.3746 0001246  80.9267 279.1863 15.06403568313988
STARLINK-1407,45703,53.0365,0.0010761,15.54095609,397.4837571604994,412.0819572772052,1 45703U 20035AY  26034.60678912  .00102312  00000+0  15333-2 0  9998,2 45703  53.0365 121.0080 0010761 344.1808  15.8864 15.54095609314989
STARLINK-1411,45706,53.047,0.0002755,15.5590613,397.65265522894333,401.3871441806814,1 45706U 20035BB  26034.51955280  .00072653  00000+0  10269-2 0  9994,2 45706  53.0470 147.5909 0002755 352.3081   7.7887 15.55906130314593
STARLINK-1423,45710,53.0541,0.0001095,15.45968278,427.7891334185333,429.2797944691374,1 45710U 20035BF  26034.00002315  .00081626  00000+0  16397-2 0  9993,2 45710  53.0541 188.2957 0001095  17.3137 254.0366 15.45968278  5796
STARLINK-1433,45711,53.0544,0.0001814,15.48052805,421.1891315725479,423.65637465097643,1 45711U 20035BG  26034.60361022  .00103739  00000+0  19314-2 0  9995,2 45711  53.0544 184.9683 0001814 343.1397  16.9549 15.48052805314071
STARLINK-1434,45712,53.0506,0.0001153,15.22978906,496.0684135450847,497.6537881071363,1 45712U 20035BH  26034.42234158  .00065534  00000+0  27425-2 0  9997,2 45712  53.0506 178.3246 0001153  81.7130 278.3997 15.22978906314160
STARLINK-1465,45731,53.054,0.0001471,15.43970681,433.4020776253874,435.40632724714305,1 45731U 20038B   26034.66668981  .00064120  00000+0  13837-2 0  9994,2 45731  53.0540  25.7097 0001471 109.0621 251.7232 15.43970681  5798
STARLINK-1471,45735,53.049,0.0003049,15.45833911,426.8534169104032,431.00436569091835,1 45735U 20038F   26034.16516035  .00027971  00000+0  57408-3 0  9991,2 45735  53.0490 307.1497 0003049 110.5697 249.5637 15.45833911312184
STARLINK-1474,45738,53.0231,0.000511,15.97330037,278.42663088779136,285.23311703297804,1 45738U 20038J   26034.66668981  .00366359  65919-4  81632-3 0  9994,2 45738  53.0231 237.5219 0005110 226.1101   0.8378 15.97330037  6024
STARLINK-1480,45741,53.0535,0.0009941,15.4259646,431.67319835338003,445.22593576600866,1 45741U 20038M   26034.66668981  .00091376  00000+0  20508-2 0  9991,2 45741  53.0535  19.3943 0009941  58.6728  29.6551 15.42596460  5838
STARLINK-1500,45744,53.04,0.0004306,15.32847728,464.3731585989399,470.2684668672664,1 45744U 20038Q   26034.59836223  .00025803  00000+0  81064-3 0  9999,2 45744  53.0400 352.4246 0004306 111.5470 248.5990 15.32847728311588
STARLINK-1504,45746,53.0251,0.0004514,15.50766591,411.4204230036903,417.5528036017804,1 45746U 20038S   26034.04014098  .00033319  00000+0  57411-3 0  9999,2 45746  53.0251 309.0378 0004514  97.1818 262.9703 15.50766591312136
STARLINK-1506,45747,53.0753,0.000481,15.25244191,486.7486739532378,493.35587203385694,1 45747U 20038T   26034.59502686  .00011420  00000+0  46103-3 0  9990,2 45747  53.0753 359.9379 0004810 121.4136 238.7333 15.25244191311488
STARLINK-1464,45751,53.054,0.0003166,15.39740381,444.71559793412416,449.03719641721455,1 45751U 20038X   26034.66668981  .00105315  00000+0  25959-2 0  9996,2 45751  53.0540   5.9435 0003166  93.3262 236.3505 15.39740381  5693
STARLINK-1477,45754,53.053,3.91e-05,15.12262402,529.0321277116473,529.5722894577575,1 45754U 20038AA  26034.62094750  .00036695  00000+0  21037-2 0  9999,2 45754  53.0530   7.5596 0000391  14.0956 346.0046 15.12262402311376
STARLINK-1478,45755,53.0558,0.0006204,15.48196431,417.78334885999266,426.22096152375525,1 45755U 20038AB  26034.66668981  .00155270  00000+0  28519-2 0  9990,2 45755  53.0558   1.5417 0006204  90.0567 143.9435 15.48196431  5849
STARLINK-1484,45756,53.0045,0.0003152,15.83598353,318.1630052054197,322.3856837169669,1 45756U 20038AC  26034.66668981  .00169640  00000+0  74500-3 0  9999,2 45756  53.0045 230.4245 0003152 200.0750 111.0835 15.83598353  5993
STARLINK-1493,45759,53.0548,0.0001183,15.41499085,440.8774968200223,442.49106653526815,1 45759U 20038AF  26034.66668981  .00799760  00000+0  17419-1 0  9998,2 45759  53.0548   6.6115 0001183 110.4605 118.3818 15.41499085  5490
STARLINK-1494,45760,53.0524,0.0002173,15.67413511,364.84087773641113,367.77201285773754,1 45760U 20038AG  26034.06637123  .00071602  00000+0  64891-3 0  9994,2 45760  53.0524 322.9013 0002173 135.3525 224.7666 15.67413511311956
STARLINK-1502,45764,53.0544,0.000125,15.31580871,470.2389815765637,471.9512896104616,1 45764U 20038AL  26034.66668981  .00821776  00000+0  24542-1 0  9992,2 45764  53.0544   7.4765 0001250  84.5632 244.8279 15.31580871  5745
STARLINK-1470,45772,53.0503,0.0001824,15.2505581,489.36499129137155,491.8707130614448,1 45772U 20038AU  26034.23241513  .00023143  00000+0  92441-3 0  9999,2 45772  53.0503 333.8455 0001824 105.1516 254.9683 15.25055810311811
STARLINK-1482,45773,53.1207,0.0001207,15.21668547,499.97710448325233,501.63768165974034,1 45773U 20038AV  26034.66668981  .01182024  00000+0  47418-1 0  9996,2 45773  53.1207 348.8311 0001207 110.2819  89.9824 15.21668547  5747
STARLINK-1496,45780,53.0555,0.0009006,15.42316918,433.133444760565,445.41296402071293,1 45780U 20038BC  26034.66668981  .00113333  00000+0  25588-2 0  9995,2 45780  53.0555 339.8625 0009006  87.5329 184.2311 15.42316918  5896
STARLINK-1497,45781,53.022,0.0005043,16.04946892,257.3936667047583,264.08963971438607,1 45781U 20038BD  26034.95913280  .00603323  18558-3  86115-3 0  9991,2 45781  53.0220 247.9918 0005043 208.7907 151.2847 16.04946892313075
STARLINK-1513,45786,53.1171,0.0001538,15.20856752,502.1966886767377,504.31340487032503,1 45786U 20038BJ  26034.66668981  .00933848  00000+0  38596-1 0  9994,2 45786  53.1171 348.9571 0001538  95.6256  55.8467 15.20856752  5749
